NORAD_CAT_ID,OBJECT_NAME,OBJECT_TYPE,EPOCH,MEAN_MOTION,ECCENTRICITY,INCLINATION,RA_OF_ASC_NODE,ARG_OF_PERICENTER,MEAN_ANOMALY,BSTAR,MEAN_MOTION_DOT,MEAN_MOTION_DDOT,TLE_LINE0,TLE_LINE1,TLE_LINE2,SEMIMAJOR_AXIS,PERIOD,APOGEE,PERIGEE,DECAYED
55769.0,STARLINK-5584,PAYLOAD,2024-07-09 12:27:55,14.98330911,0.0003107,70.0011,317.9286,270.8555,89.2248,2.4551e-05,2e-06,0.0,0 STARLINK-5584,1 55769U 23028AE  24191.51939124  .00000200  00000-0  24551-4 0  9991,2 55769  70.0011 317.9286 0003107 270.8555  89.2248 14.98330911 75422,6950.19,96.107,574.214,569.896,0.0
55769.0,STARLINK-5584,PAYLOAD,2024-07-09 14:04:03,14.98330958,0.0003106,70.0012,317.7603,270.8815,89.1988,2.4371e-05,1.98e-06,0.0,0 STARLINK-5584,1 55769U 23028AE  24191.58615115  .00000198  00000-0  24371-4 0  9995,2 55769  70.0012 317.7603 0003106 270.8815  89.1988 14.98330958 75445,6950.19,96.107,574.214,569.896,0.0
55769.0,STARLINK-5584,PAYLOAD,2024-07-09 18:52:25,14.9835304,0.0003427,70.001,317.2553,262.8576,97.2193,0.00026445,3.066e-05,0.0,0 STARLINK-5584,1 55769U 23028AE  24191.78640747  .00003066  00000-0  26445-3 0  9996,2 55769  70.0010 317.2553 0003427 262.8576  97.2193 14.98353040 75460,6950.122,96.106,574.368,569.605,0.0
55769.0,STARLINK-5584,PAYLOAD,2024-07-10 01:16:59,14.9833768,0.0003242,70.0015,316.5819,270.0461,90.0327,7.2099e-05,7.68e-06,0.0,0 STARLINK-5584,1 55769U 23028AE  24192.05346085  .00000768  00000-0  72099-4 0  9998,2 55769  70.0015 316.5819 0003242 270.0461  90.0327 14.98337680 75508,6950.169,96.107,574.287,569.781,0.0
55769.0,STARLINK-5584,PAYLOAD,2024-07-10 10:53:48,14.9832201,0.000325,70.0013,315.5725,268.2095,91.8692,-0.00020752,-2.568e-05,0.0,0 STARLINK-5584,1 55769U 23028AE  24192.45403878 -.00002568  00000-0 -20752-3 0  9996,2 55769  70.0013 315.5725 0003250 268.2095  91.8692 14.98322010 75563,6950.218,96.108,574.341,569.824,0.0
55769.0,STARLINK-5584,PAYLOAD,2024-07-10 14:06:04,14.98324922,0.0003075,70.0013,315.2359,267.5929,92.4878,-0.00017264,-2.152e-05,0.0,0 STARLINK-5584,1 55769U 23028AE  24192.58755638 -.00002152  00000-0 -17264-3 0  9997,2 55769  70.0013 315.2359 0003075 267.5929  92.4878 14.98324922 75596,6950.209,96.107,574.211,569.936,0.0
55769.0,STARLINK-5584,PAYLOAD,2024-07-10 18:54:29,14.98320836,0.0002883,70.0018,314.7325,265.5699,94.513,-0.00019555,-2.425e-05,0.0,0 STARLINK-5584,1 55769U 23028AE  24192.78784040 -.00002425  00000-0 -19555-3 0  9996,2 55769  70.0018 314.7325 0002883 265.5699  94.5130 14.98320836 75624,6950.221,96.108,574.09,570.082,0.0
55769.0,STARLINK-5584,PAYLOAD,2024-07-11 14:08:05,14.98329354,0.0003196,70.0013,312.7114,263.8736,96.2059,-2.6517e-05,-4.09e-06,0.0,0 STARLINK-5584,1 55769U 23028AE  24193.58895023 -.00000409  00000-0 -26517-4 0  9996,2 55769  70.0013 312.7114 0003196 263.8736  96.2059 14.98329354 75740,6950.195,96.107,574.281,569.839,0.0
55769.0,STARLINK-5584,PAYLOAD,2024-07-12 01:21:01,14.98345155,0.0003612,70.0005,311.5317,272.028,88.0465,-0.00021359,-2.642e-05,0.0,0 STARLINK-5584,1 55769U 23028AE  24194.05626276 -.00002642  00000-0 -21359-3 0  9990,2 55769  70.0005 311.5317 0003612 272.0280  88.0465 14.98345155 75806,6950.146,96.106,574.521,569.501,0.0
55769.0,STARLINK-5584,PAYLOAD,2024-07-12 12:33:58,14.98314523,0.0003728,70.0011,310.3532,269.4867,90.5865,0.00021257,2.443e-05,0.0,0 STARLINK-5584,1 55769U 23028AE  24194.52359162  .00002443  00000-0  21257-3 0  9993,2 55769  70.0011 310.3532 0003728 269.4867  90.5865 14.98314523 75872,6950.241,96.108,574.697,569.515,0.0
55769.0,STARLINK-5584,PAYLOAD,2024-07-12 14:10:06,14.9832546,0.0003373,70.0003,310.1847,267.186,92.8913,0.00013185,1.48e-05,0.0,0 STARLINK-5584,1 55769U 23028AE  24194.59034765  .00001480  00000-0  13185-3 0  9990,2 55769  70.0003 310.1847 0003373 267.1860  92.8913 14.98325460 75897,6950.207,96.107,574.416,569.728,0.0
55769.0,STARLINK-5584,PAYLOAD,2024-07-12 17:22:22,14.98325632,0.0003456,70.0008,309.8492,267.7199,92.3565,0.00013943,1.571e-05,0.0,0 STARLINK-5584,1 55769U 23028AE  24194.72386762  .00001571  00000-0  13943-3 0  9995,2 55769  70.0008 309.8492 0003456 267.7199  92.3565 14.98325632 75907,6950.206,96.107,574.473,569.669,0.0
55769.0,STARLINK-5584,PAYLOAD,2024-07-13 14:12:07,14.98331111,0.0003293,70.0009,307.6603,262.5703,97.5082,1.0362e-05,3.1e-07,0.0,0 STARLINK-5584,1 55769U 23028AE  24195.59174919  .00000031  00000-0  10362-4 0  9993,2 55769  70.0009 307.6603 0003293 262.5703  97.5082 14.98331111 76047,6950.189,96.107,574.343,569.766,0.0
55769.0,STARLINK-5584,PAYLOAD,2024-07-13 17:24:23,14.98331165,0.000325,70.0012,307.3237,261.2024,98.8767,1.1185e-05,4e-07,0.0,0 STARLINK-5584,1 55769U 23028AE  24195.72526914  .00000040  00000-0  11185-4 0  9998,2 55769  70.0012 307.3237 0003250 261.2024  98.8767 14.98331165 76050,6950.189,96.107,574.313,569.795,0.0
55769.0,STARLINK-5584,PAYLOAD,2024-07-14 14:14:07,14.98338212,0.0003612,70.0007,305.1362,269.2761,90.7984,8.4719e-05,9.18e-06,0.0,0 STARLINK-5584,1 55769U 23028AE  24196.59314165  .00000918  00000-0  84719-4 0  9994,2 55769  70.0007 305.1362 0003612 269.2761  90.7984 14.98338212 76194,6950.167,96.106,574.543,569.522,0.0
55769.0,STARLINK-5584,PAYLOAD,2024-07-14 17:26:23,14.98340424,0.0003544,70.0008,304.7995,269.1615,90.9138,0.00011158,1.239e-05,0.0,0 STARLINK-5584,1 55769U 23028AE  24196.72665896  .00001239  00000-0  11158-3 0  9992,2 55769  70.0008 304.7995 0003544 269.1615  90.9138 14.98340424 76206,6950.161,96.106,574.489,569.563,0.0
55769.0,STARLINK-5584,PAYLOAD,2024-07-15 11:03:52,14.98328819,0.0003378,70.0014,302.9492,267.8028,92.2744,3.1946e-05,2.88e-06,0.0,0 STARLINK-5584,1 55769U 23028AE  24197.46102705  .00000288  00000-0  31946-4 0  9990,2 55769  70.0014 302.9492 0003378 267.8028  92.2744 14.98328819 76317,6950.197,96.107,574.409,569.714,0.0
55769.0,STARLINK-5584,PAYLOAD,2024-07-15 14:16:09,14.98279742,0.0003634,70.001,302.6116,275.1608,84.9136,0.00086041,0.00010175,0.0,0 STARLINK-5584,1 55769U 23028AE  24197.59455671  .00010175  00000-0  86041-3 0  9998,2 55769  70.0010 302.6116 0003634 275.1608  84.9136 14.98279742 76340,6950.348,96.11,574.739,569.688,0.0
55769.0,STARLINK-5584,PAYLOAD,2024-07-15 17:28:25,14.98279778,0.0003509,70.0021,302.2762,273.0589,87.0169,0.00094243,0.00011156,0.0,0 STARLINK-5584,1 55769U 23028AE  24197.72807762  .00011156  00000-0  94243-3 0  9998,2 55769  70.0021 302.2762 0003509 273.0589  87.0169 14.98279778 76351,6950.348,96.11,574.652,569.774,0.0
55769.0,STARLINK-5584,PAYLOAD,2024-07-16 12:42:01,14.98328711,0.0003363,70.0016,300.2561,270.5613,89.516,-3.8168e-05,-5.48e-06,0.0,0 STARLINK-5584,1 55769U 23028AE  24198.52918801 -.00000548  00000-0 -38168-4 0  9994,2 55769  70.0016 300.2561 0003363 270.5613  89.5160 14.98328711 76471,6950.197,96.107,574.399,569.725,0.0
55769.0,STARLINK-5584,PAYLOAD,2024-07-16 14:18:09,14.98331402,0.0003252,70.0016,300.0881,266.6366,93.4421,-1.7555e-05,-3.02e-06,0.0,0 STARLINK-5584,1 55769U 23028AE  24198.59594549 -.00000302  00000-0 -17555-4 0  9995,2 55769  70.0016 300.0881 0003252 266.6366  93.4421 14.98331402 76499,6950.189,96.107,574.314,569.793,0.0
55769.0,STARLINK-5584,PAYLOAD,2024-07-16 15:54:17,14.98335602,0.0003274,70.0014,299.9205,264.7678,95.3108,-2.139e-05,-3.48e-06,0.0,0 STARLINK-5584,1 55769U 23028AE  24198.66270250 -.00000348  00000-0 -21390-4 0  9995,2 55769  70.0014 299.9205 0003274 264.7678  95.3108 14.98335602 76503,6950.176,96.107,574.316,569.765,0.0
55769.0,STARLINK-5584,PAYLOAD,2024-07-17 12:44:03,14.98318902,0.0003328,70.0009,297.7311,268.3393,91.7385,-0.00011102,-1.417e-05,0.0,0 STARLINK-5584,1 55769U 23028AE  24199.53059761 -.00001417  00000-0 -11102-3 0  9991,2 55769  70.0009 297.7311 0003328 268.3393  91.7385 14.98318902 76629,6950.227,96.108,574.405,569.779,0.0
55769.0,STARLINK-5584,PAYLOAD,2024-07-17 14:20:11,14.9832049,0.0003417,70.0004,297.5621,267.5314,92.5454,-9.435e-05,-1.218e-05,0.0,0 STARLINK-5584,1 55769U 23028AE  24199.59735632 -.00001218  00000-0 -94350-4 0  9991,2 55769  70.0004 297.5621 0003417 267.5314  92.5454 14.98320490 76642,6950.222,96.108,574.462,569.712,0.0
55769.0,STARLINK-5584,PAYLOAD,2024-07-17 15:56:19,14.98322753,0.0003358,70.0005,297.3935,269.645,90.4324,-8.1355e-05,-1.063e-05,0.0,0 STARLINK-5584,1 55769U 23028AE  24199.66411501 -.00001063  00000-0 -81355-4 0  9994,2 55769  70.0005 297.3935 0003358 269.6450  90.4324 14.98322753 76655,6950.215,96.107,574.414,569.746,0.0
55769.0,STARLINK-5584,PAYLOAD,2024-07-18 12:46:03,14.98332063,0.0003465,70.0003,295.2053,267.8673,92.2089,3.7452e-05,3.54e-06,0.0,0 STARLINK-5584,1 55769U 23028AE  24200.53198887  .00000354  00000-0  37452-4 0  9991,2 55769  70.0003 295.2053 0003465 267.8673  92.2089 14.98332063 76773,6950.187,96.107,574.46,569.643,0.0
55769.0,STARLINK-5584,PAYLOAD,2024-07-18 14:22:11,14.98330963,0.0003451,70.0001,295.0364,266.9265,93.1499,3.1756e-05,2.86e-06,0.0,0 STARLINK-5584,1 55769U 23028AE  24200.59874970  .00000286  00000-0  31756-4 0  9996,2 55769  70.0001 295.0364 0003451 266.9265  93.1499 14.98330963 76790,6950.19,96.107,574.453,569.656,0.0
55769.0,STARLINK-5584,PAYLOAD,2024-07-18 15:58:19,14.98333671,0.0003448,70.0002,294.8688,268.4963,91.5802,4.7258e-05,4.71e-06,0.0,0 STARLINK-5584,1 55769U 23028AE  24200.66550770  .00000471  00000-0  47258-4 0  9993,2 55769  70.0002 294.8688 0003448 268.4963  91.5802 14.98333671 76806,6950.182,96.107,574.443,569.65,0.0
55769.0,STARLINK-5584,PAYLOAD,2024-07-19 12:48:04,14.98332865,0.0003361,70.0003,292.6814,269.2589,90.8185,0.00018346,2.097e-05,0.0,0 STARLINK-5584,1 55769U 23028AE  24201.53338439  .00002097  00000-0  18346-3 0  9997,2 55769  70.0003 292.6814 0003361 269.2589  90.8185 14.98332865 76924,6950.184,96.107,574.385,569.713,0.0
55769.0,STARLINK-5584,PAYLOAD,2024-07-19 14:24:12,14.98333608,0.0003354,70.0003,292.5131,269.264,90.8134,0.00018788,2.15e-05,0.0,0 STARLINK-5584,1 55769U 23028AE  24201.60014367  .00002150  00000-0  18788-3 0  9996,2 55769  70.0003 292.5131 0003354 269.2640  90.8134 14.98333608 76947,6950.182,96.107,574.378,569.716,0.0
